HULIANWANG DIGUI-124    
1 67064U 25295F   26203.82506131 -.00000090  00000+0  73384-4 0  9993
2 67064  49.9986 257.5240 0001142 221.3324 138.7462 13.29329586 30248
HULIANWANG DIGUI-125    
1 67065U 25295G   26204.19253419 -.00000086  00000+0  81455-4 0  9996
2 67065  49.9976 256.1150 0001113 221.0573 139.0216 13.29330274 30296
HULIANWANG DIGUI-126    
1 67066U 25295H   26203.88346664 -.00000093  00000+0  67337-4 0  9998
2 67066  49.9981 257.1548 0001146 216.1908 143.8887 13.29323154 30250
HULIANWANG DIGUI-127    
1 67067U 25295J   26204.17573966 -.00000088  00000+0  76905-4 0  9994
2 67067  49.9998 256.0679 0001144 220.7710 139.3076 13.29331441 30294
HULIANWANG DIGUI-128    
1 67236U 25311A   26202.76946894 -.00000111  00000+0  28355-4 0  9991
2 67236  50.0102 351.5303 0000909  97.0176 263.0800 13.29323850 27949
HULIANWANG DIGUI-129    
1 67237U 25311B   26203.83025777 -.00000104  00000+0  44213-4 0  9992
2 67237  50.0093 347.7801 0000843 101.9690 258.1277 13.29325135 28089
HULIANWANG DIGUI-130    
1 67238U 25311C   26203.65490521 -.00000104  00000+0  42856-4 0  9997
2 67238  50.0076 348.8101 0000922 100.2192 259.8785 13.29323896 28054
HULIANWANG DIGUI-131    
1 67239U 25311D   26203.66327218 -.00000116  00000+0  17462-4 0  9999
2 67239  50.0070 348.8453 0000932 100.7650 259.3327 13.29323593 28055
HULIANWANG DIGUI-132    
1 67240U 25311E   26203.78853403 -.00000109  00000+0  33140-4 0  9997
2 67240  50.0082 348.1978 0000873  99.6244 260.4726 13.29324352 28076
HULIANWANG DIGUI-133    
1 67241U 25311F   26203.77185569 -.00000115  00000+0  20056-4 0  9997
2 67241  50.0124 348.1881 0000857 101.9082 258.1887 13.29324212 28073
HULIANWANG DIGUI-134    
1 67242U 25311G   26203.85535575 -.00000100  00000+0  52156-4 0  9993
2 67242  50.0052 347.8417 0000883 100.9500 259.1472 13.29324089 28082
HULIANWANG DIGUI-135    
1 67243U 25311H   26203.79688804 -.00000114  00000+0  22322-4 0  9998
2 67243  50.0042 348.1735 0000898  99.7511 260.3463 13.29323819 28075
HULIANWANG DIGUI-136    
1 67244U 25311J   26203.76345651 -.00000100  00000+0  51820-4 0  9996
2 67244  50.0114 348.1244 0000825 102.6347 257.4618 13.29324744 28079
HULIANWANG DIGUI-137    
1 67435U 26007A   26204.31718570 -.00000106  00000+0  38542-4 0  9999
2 67435  50.0098 316.2808 0000866 144.2377 215.8553 13.29327260 25590
HULIANWANG DIGUI-138    
1 67436U 26007B   26204.25875393 -.00000101  00000+0  50142-4 0  9995
2 67436  50.0076 316.6050 0000857 142.2826 217.8107 13.29325686 25583
HULIANWANG DIGUI-139    
1 67437U 26007C   26204.32539038 -.00000103  00000+0  44505-4 0  9995
2 67437  50.0046 316.2451 0000834 131.0518 229.0426 13.29328634 25597
